[{"OBJECT_NAME":"STARLINK-31504","OBJECT_ID":"2024-056H","EPOCH":"2026-03-09T10:22:15.882528","MEAN_MOTION":15.27566705,"ECCENTRICITY":0.00012247,"INCLINATION":43.0012,"RA_OF_ASC_NODE":232.2747,"ARG_OF_PERICENTER":274.4841,"MEAN_ANOMALY":85.5871,"EPHEMERIS_TYPE":0,"CLASSIFICATION_TYPE":"U","NORAD_CAT_ID":59303,"ELEMENT_SET_NO":999,"REV_AT_EPOCH":11111,"BSTAR":1.9371967e-5,"MEAN_MOTION_DOT":2.71e-6,"MEAN_MOTION_DDOT":0},{"OBJECT_NAME":"ATLAS CENTAUR 2 DEB","OBJECT_ID":"1963-047H","EPOCH":"2026-03-09T12:19:05.186208","MEAN_MOTION":13.85184807,"ECCENTRICITY":0.06358941,"INCLINATION":30.4264,"RA_OF_ASC_NODE":268.0385,"ARG_OF_PERICENTER":278.88,"MEAN_ANOMALY":74.0363,"EPHEMERIS_TYPE":0,"CLASSIFICATION_TYPE":"U","NORAD_CAT_ID":739,"ELEMENT_SET_NO":999,"REV_AT_EPOCH":12755,"BSTAR":7.4246784e-5,"MEAN_MOTION_DOT":5.52e-6,"MEAN_MOTION_DDOT":0}]
